FLOCK 4G-21             
1 62651U 25009AU  26068.19487675  .00013648  00000+0  49619-3 0  9998
2 62651  97.4032 151.1274 0000465 329.5782  30.5431 15.28381075 63677
STARLINK-35834          
1 66570U 25268P   26068.15997786  .00030789  00000+0  11226-2 0  9991
2 66570  42.9969 350.5009 0000279 237.3828 122.6996 15.27613968 17874
